{
  "norad_id": 63281,
  "name": "STARLINK-33665",
  "history": [
    {
      "epoch": "2026-03-28T19:27:27.106560",
      "apogee_km": 483.6675682500709,
      "perigee_km": 482.2451263773064,
      "latitude_deg": 1.881343539583401,
      "longitude_deg": -134.06988159986213,
      "semi_major_axis_km": 6861.093347313688,
      "eccentricity": 0.00010366,
      "inclination_deg": 42.9973,
      "raan_deg": 133.2749,
      "arg_perigee_deg": 294.8095,
      "mean_anomaly_deg": 65.2649,
      "mean_motion_rev_day": 15.27610975
    }
  ]
}